CELTEE 1                
1 41850U 16067C   18296.24020530 -.00000144  00000-0 -72406-5 0  9995
2 41850  97.9215  26.1082 0009970  96.8277 263.4079 14.96883055106250
OPTICUBE 04             
1 41851U 16067D   18296.48621146  .00000031  00000-0  80178-5 0  9990
2 41851  97.9221  26.2341 0010496  96.6975 263.5440 14.96722568106282
AEROCUBE 8D             
1 41852U 16067E   18296.47005827  .00000801  00000-0  75651-4 0  9996
2 41852  97.9231  26.0500 0011322  98.2418 262.0087 14.96572891106269
AEROCUBE 8C             
1 41853U 16067F   18296.55413687  .00000050  00000-0  97123-5 0  9998
2 41853  97.9232  26.0895 0011567  97.9421 262.3113 14.96539882106276
PROMETHEUS 2-1          
1 41854U 16067G   18296.55005573  .00000488  00000-0  48012-4 0  9997
2 41854  97.9239  26.1293 0011966  97.9715 262.2864 14.96683325106270
PROMETHEUS 2-3          
1 41855U 16067H   18296.48594010  .00000320  00000-0  33361-4 0  9995
2 41855  97.9241  26.0721 0012087  98.4106 261.8485 14.96683347106261
ITF-2                   
1 41932U 98067KU  18296.33305129  .00091720  00000-0  31046-3 0  9997
2 41932  51.6291  35.4693 0005773 342.5915  17.4891 15.89151705101044
AOBA-VELOX 3            
1 41935U 98067KX  18296.50509613  .00587720  19590-3  54123-3 0  9991
2 41935  51.6262  22.1461 0009807 354.5914   5.4993 16.11638919101330
INS-1B                  
1 41954U 17008G   18296.42531573  .00001276  00000-0  56713-4 0  9997
2 41954  97.4327 359.2401 0007729 261.3670  98.6691 15.23337862 93529
BGUSAT                  
1 41999U 17008BD  18296.32311602  .00002109  00000-0  87090-4 0  9992
2 41999  97.4378   0.6033 0006713 281.4651  78.5833 15.25119408 92953
DIDO-2                  
1 42000U 17008BE  18296.48570349  .00000967  00000-0  43566-4 0  9998
2 42000  97.4343 359.7891 0006994 284.5244  75.5217 15.23449878 92938
PEASSS                  
1 42015U 17008BV  18296.45968913  .00001164  00000-0  50553-4 0  9993
2 42015  97.4343   0.3796 0004948 294.4777  65.5944 15.24307334 93450
AL-FARABI 1             
1 42016U 17008BW  18296.61138874  .00001501  00000-0  63443-4 0  9994
2 42016  97.4353   0.8298 0004803 293.6621  66.4112 15.24797687 93612
NAYIF-1 (EO-88)         
1 42017U 17008BX  18296.60352894  .00001471  00000-0  62181-4 0  9998
2 42017  97.4350   0.8300 0004770 293.8593  66.2144 15.24823918 93639
HAVELSAT                
1 42700U 98067LH  18296.37457796  .00059923  00000-0  30879-3 0  9995
2 42700  51.6290  55.4104 0004035 358.8712   1.2280 15.80558723 82224
CXBN-2                  
1 42704U 98067LM  18296.37104777  .00059152  00000-0  31317-3 0  9999
2 42704  51.6321  56.9336 0003387 320.0401  40.0351 15.79974686 82128
PHOENIX                 
1 42706U 98067LP  18296.40519983  .00034592  00000-0  22772-3 0  9990
2 42706  51.6322  60.1981 0002084 314.4310  45.6518 15.75319643 82075
X-CUBESAT               
1 42707U 98067LQ  18296.46541362  .00068749  00000-0  32557-3 0  9996
2 42707  51.6302  53.6698 0003769 326.5994  33.4770 15.82333696 82155
QBEE50-LTU-OC           
1 42708U 98067LR  18296.45303011  .00056341  00000-0  29608-3 0  9991
2 42708  51.6305  55.9500 0002561 329.1203  30.9647 15.80160588 82080
ALTAIR PATHFINDER       
1 42711U 98067LS  18296.45117693  .00020177  00000-0  18140-3 0  9991
2 42711  51.6347  72.5818 0003543 304.9554  55.1109 15.68222938 81577
SHARC                   
1 42712U 98067LT  18296.49021191  .00038996  00000-0  30664-3 0  9996
2 42712  51.6353  72.9085 0002741 306.0373  54.0371 15.71086544 81817
ZA-AEROSAT              
1 42713U 98067LU  18296.42382415  .00034898  00000-0  24532-3 0  9993
2 42713  51.6328  64.0673 0002695 302.6507  57.4232 15.73791187 81680
CSUNSAT 1               
1 42715U 98067LW  18296.49569522  .00036984  00000-0  24536-3 0  9990
2 42715  51.6341  62.3135 0003873 305.9944  54.0696 15.75101858 81714
SPACECUBE               
1 42717U 98067LY  18296.49073532  .00056781  00000-0  30035-3 0  9991
2 42717  51.6261  56.1299 0003347 353.8988   6.1972 15.80010897 81167
HOOPOE                  
1 42718U 98067LZ  18296.48469230  .00111665  00000-0  40370-3 0  9991
2 42718  51.6271  49.2656 0004970 339.9164  20.1644 15.87760429 81255
NJUST-1                 
1 42722U 98067MB  18296.51428778  .00031044  00000-0  23343-3 0  9995
2 42722  51.6342  66.2174 0004741 351.4082   8.6834 15.72260144 80734
UNSW-ECO                
1 42723U 98067MC  18296.35401774  .00153531  19896-4  46753-3 0  9998
2 42723  51.6370  48.5160 0006905 343.9582  16.1204 15.91677111 80933
LILACSAT-1              
1 42725U 98067ME  18296.54106523  .00042892  00000-0  25832-3 0  9990
2 42725  51.6378  60.2284 0004502 352.8271  64.2644 15.77236400 80721
NSIGHT-1                
1 42726U 98067MF  18296.47587756  .00012636  00000-0  13636-3 0  9996
2 42726  51.6378  79.6089 0004767 355.3103   4.7846 15.64054209 80469
SNUSAT-1                
1 42727U 98067MG  18296.54628247  .00046329  00000-0  27998-3 0  9998
2 42727  51.6325  60.3049 0005949 325.1162  34.9447 15.77114169 80680
I-INSPIRE II            
1 42731U 98067ML  18296.46040142  .00184690  24197-4  49969-3 0  9999
2 42731  51.6321  46.0827 0007845 329.7805  30.2749 15.93845324 80751
POLYITAN-2-SAU          
1 42732U 98067MM  18296.49333741  .00070337  00000-0  33934-3 0  9993
2 42732  51.6317  54.6728 0005964 317.2813  42.7725 15.81910733 80647
SNUSAT-1B               
1 42733U 98067MN  18296.43662446  .00049606  00000-0  27987-3 0  9991
2 42733  51.6302  58.8412 0005884 318.4922  41.5631 15.78626779 80589
EXALTA-1                
1 42734U 98067MP  18296.43555324  .00280466  43361-4  58731-3 0  9991
2 42734  51.6222  44.2346 0009318 341.6055  18.4616 15.98391218 80728
BEEAGLESAT              
1 42736U 98067MR  18296.40227073  .00039980  00000-0  25791-3 0  9999
2 42736  51.6322  62.3930 0005137 346.3015  13.7845 15.75701582 80595
UCLSAT                  
1 42765U 17036A   18296.60927200  .00001226  00000-0  56394-4 0  9995
2 42765  97.3866 354.3061 0011379 354.8059   5.3057 15.22160209 74832
LITUANICASAT-2          
1 42768U 17036D   18296.43633488  .00001874  00000-0  85242-4 0  9994
2 42768  97.3888 353.6934 0014840 342.8187  17.2545 15.21868756 74065
AALTO-1                 
1 42775U 17036L   18296.59614320  .00000783  00000-0  38383-4 0  9995
2 42775  97.3855 353.5468 0013484 341.6592  18.4156 15.20957040 74018
URSA MAIOR              
1 42776U 17036M   18296.57527964  .00000824  00000-0  40151-4 0  9993
2 42776  97.3864 353.6062 0013313 341.8561  18.2198 15.21054551 74019
COMPASS 2               
1 42777U 17036N   18296.15512083  .00001558  00000-0  70910-4 0  9995
2 42777  97.3891 353.8106 0012266 346.7488  13.3425 15.22137498 73975
DIAMOND RED             
1 42783U 17036U   18296.57739181  .00000996  00000-0  46989-4 0  9992
2 42783  97.3866 354.0524 0012000 354.6152   5.4953 15.21720023 74030
PEGASUS                 
1 42784U 17036V   18296.59755207  .00001137  00000-0  52825-4 0  9996
2 42784  97.3868 354.1875 0011930 354.4830   5.6273 15.21955175 74041
DIAMOND GREEN           
1 42785U 17036W   18296.37887570  .00000819  00000-0  39200-4 0  9990
2 42785  97.3869 353.8747 0011923 355.9661   4.1477 15.21717876 74074
DIAMOND BLUE            
1 42786U 17036X   18296.44375599  .00000974  00000-0  46031-4 0  9994
2 42786  97.3868 353.9379 0011782 356.1209   3.9933 15.21721508 74082
NUDTSAT                 
1 42787U 17036Y   18296.59356569  .00001919  00000-0  85304-4 0  9993
2 42787  97.3896 354.5233 0012820 349.6952  10.4021 15.22663958 73902
SUCHAI                  
1 42788U 17036Z   18296.59591019  .00001320  00000-0  60292-4 0  9990
2 42788  97.3871 354.3434 0011503 354.4404   5.6702 15.22273735 74127
SKCUBE                  
1 42789U 17036AA  18296.59937567  .00001235  00000-0  56735-4 0  9995
2 42789  97.3868 354.3283 0011343 354.4947   5.6163 15.22213941 74045
VZLUSAT-1               
1 42790U 17036AB  18296.58146418  .00001540  00000-0  69076-4 0  9994
2 42790  97.3876 354.5164 0010944 354.7162   5.3958 15.22673928 74059
ROBUSTA-1B              
1 42792U 17036AD  18296.35820102  .00001246  00000-0  56947-4 0  9996
2 42792  97.3868 354.1810 0010980 356.6666   3.4496 15.22371273 74027
CICERO 6                
1 42793U 17036AE  18296.36930594  .00001008  00000-0  46945-4 0  9998
2 42793  97.3857 354.1350 0010254 358.7081   1.4127 15.22133569 74093
D-SAT                   
1 42794U 17036AF  18296.56827351  .00000380  00000-0  38694-4 0  9991
2 42794  97.5763 346.2723 0126088 214.3815 144.9199 14.90950546 72853
TOKI                    
1 42820U 98067MU  18296.36339352  .00040457  00000-0  27473-3 0  9992
2 42820  51.6321  65.9025 0003301 296.2257  63.8403 15.74521650 74026
MAZAALAI (NUMSAT-1)     
1 42822U 98067MW  18296.49010174  .00037275  00000-0  25897-3 0  9998
2 42822  51.6322  66.0109 0003277 298.8175  61.2495 15.74030335 74010
BRAC ONNESHA            
1 42823U 98067MX  18296.41020614  .00038945  00000-0  26762-3 0  9998
2 42823  51.6342  66.2535 0004858 315.7689  44.2921 15.74257231 74003
NIGERIAEDUSAT-1         
1 42824U 98067MY  18296.39348334  .00036652  00000-0  25654-3 0  9990
2 42824  51.6333  66.9163 0004929 314.4325  45.6270 15.73858125 73997
CORVUS BC2              
1 42846U 17042X   18296.44940526  .00000138  00000-0  18967-4 0  9995
2 42846  97.5841 194.6004 0010862 123.7707 236.4549 14.91872732 69493
CORVUS BC1              
1 42847U 17042Y   18296.41857277  .00000183  00000-0  23321-4 0  9993
2 42847  97.5840 194.6392 0010464 123.4233 236.7988 14.91972385 69486
SILU-1 (SILKROAD 1)     
1 42903U 17021F   18296.39904308  .00039850  00000-0  21770-3 0  9996
2 42903  42.7743 267.9285 0013377 132.3576   0.5752 15.79019431 70145
MIRATA                  
1 43015U 17073C   18296.56048906  .00000707  00000-0  61503-4 0  9998
2 43015  97.7080 222.2276 0256206 213.2736 145.2144 14.78441197 50107
